[{"OBJECT_NAME":"STARLINK-5547","OBJECT_ID":"2023-013X","EPOCH":"2026-03-09T22:00:01.999584","MEAN_MOTION":15.18674823,"ECCENTRICITY":0.00015552,"INCLINATION":42.9992,"RA_OF_ASC_NODE":298.2701,"ARG_OF_PERICENTER":289.0622,"MEAN_ANOMALY":57.5598,"EPHEMERIS_TYPE":0,"CLASSIFICATION_TYPE":"U","NORAD_CAT_ID":55352,"ELEMENT_SET_NO":999,"REV_AT_EPOCH":578,"BSTAR":0.050453363,"MEAN_MOTION_DOT":0.01159018,"MEAN_MOTION_DDOT":0},{"OBJECT_NAME":"CZ-6A DEB","OBJECT_ID":"2022-151NB","EPOCH":"2026-03-09T18:26:17.609568","MEAN_MOTION":15.22372787,"ECCENTRICITY":0.00267955,"INCLINATION":98.6489,"RA_OF_ASC_NODE":154.0342,"ARG_OF_PERICENTER":180.4296,"MEAN_ANOMALY":179.6918,"EPHEMERIS_TYPE":0,"CLASSIFICATION_TYPE":"U","NORAD_CAT_ID":54601,"ELEMENT_SET_NO":999,"REV_AT_EPOCH":17694,"BSTAR":0.011449911,"MEAN_MOTION_DOT":0.00276508,"MEAN_MOTION_DDOT":0}]
